[{"OBJECT_NAME":"JB-3 3 (ZY 2C)","OBJECT_ID":"2004-044A","EPOCH":"2026-03-09T22:02:57.764832","MEAN_MOTION":15.18506021,"ECCENTRICITY":0.00333938,"INCLINATION":97.2622,"RA_OF_ASC_NODE":226.2642,"ARG_OF_PERICENTER":206.2478,"MEAN_ANOMALY":153.7066,"EPHEMERIS_TYPE":0,"CLASSIFICATION_TYPE":"U","NORAD_CAT_ID":28470,"ELEMENT_SET_NO":999,"REV_AT_EPOCH":17271,"BSTAR":0.00032413866,"MEAN_MOTION_DOT":6.719e-5,"MEAN_MOTION_DDOT":0},{"OBJECT_NAME":"PIESAT-2 11","OBJECT_ID":"2024-241C","EPOCH":"2026-03-07T12:28:16.019904","MEAN_MOTION":15.13471753,"ECCENTRICITY":0.00017821,"INCLINATION":97.5216,"RA_OF_ASC_NODE":15.2882,"ARG_OF_PERICENTER":92.1609,"MEAN_ANOMALY":267.9826,"EPHEMERIS_TYPE":0,"CLASSIFICATION_TYPE":"U","NORAD_CAT_ID":62335,"ELEMENT_SET_NO":999,"REV_AT_EPOCH":6743,"BSTAR":0.00087235148,"MEAN_MOTION_DOT":0.00015561,"MEAN_MOTION_DDOT":0}]
